#dP2023  5  8  0  0  0.00000000      96 __u+U ITR00 EXT  IAC
## 2261  86400.00000000   900.00000000 60072 0.0000000000000
+  119   C06C07C08C09C10C11C12C13C14C16C19C20C21C22C23C24C25
+        C26C27C28C29C30C32C33C34C35C36C37C38C39C40C41C42C43
+        C44C45C46E02E03E04E05E07E08E09E10E11E12E13E14E15E18
+        E19E21E24E25E26E27E30E31E33E34E36G01G02G03G04G05G06
+        G07G08G09G10G11G12G13G14G15G16G17G18G19G20G21G22G23
+        G24G25G26G27G28G29G30G31G32J02J03J04R01R02R03R04R05
+        R07R08R09R11R12R13R14R15R16R17R18R19R20R21R22R24R25
++        11 10 10 11 10  9  8 10  9 11  9  9  9  8  8  9  9
++         9  8  8  8  8  9  9  9  8 10  8 10 10  8 10 10  8
++         8  8  8  9  8  7  8  8  8  7  8  8  8  8  8  9  8
++         7  8  9  8  8  8  8 10  8  9  9  7  8  7  8  8  9
++         8  7  8  7  8  8  7  8  7  7  8  8  8  7  8  7  7
++         8  8  8  8  8  8  8  7  7 11 10  8  8  8  8  7  7
++         8  8  9  8  9  9  8  9  9  9  9  8  8  9  7 10  8
%c M  cc GPS ccc cccc cccc cccc cccc ccccc ccccc ccccc ccccc
%c cc cc ccc ccc cccc cccc cccc cccc ccccc ccccc ccccc ccccc
%f  0.0000000  0.000000000  0.00000000000  0.000000000000000
%f  0.0000000  0.000000000  0.00000000000  0.000000000000000
%i    0    0    0    0      0      0      0      0         0
%i    0    0    0    0      0      0      0      0         0
/* IAC                                ULTRA-RAPID PREDICTION
/* S/V CLOCKS ARE ALIGNED TO GNSS TIME                      
/* G:C1WC2W R:C1PC2P E:C1XC5X C:C2IC6I J:C1CC2S             
/* PCV:IGS20_2247 OL/AL:FES2004  NONE     YN ORB:CoN CLK:CoN
*  2023 05 08 22  0  0.00000000
PC06 -17146.739421  27997.944398  26348.459266   -193.067670
PC07  -8388.615532  40094.961720  10445.764975     10.225624
PC08   -812.598877  23287.022800 -35111.462322    489.675056
PC09  -6936.574435  26972.026874  31931.435375    676.293078
PC10  -2177.962249  42277.861986   3484.951662    -53.346179
PC11  13064.827308   9361.636940 -22750.553493    608.719449
PC12  -5508.471357  19291.236936 -19368.497386    625.533914
PC13   6173.716137  26997.018465 -31557.592512    270.340188
PC14  12508.652262  19735.371861  15327.016791    232.219814
PC16 -20588.926005  27554.935700  24421.324891     84.722616
PC19 -15321.044018 -10239.660777 -20917.258615   -908.158813
PC20  -8491.334627 -25048.825113  -8823.628794    579.747991
PC21  -4057.163387  25903.403222  -9579.096383   -913.497105
PC22 -13683.245594  11257.093441 -21562.876034   -497.635595
PC23  22394.477476  -2772.108690 -16412.704318   -923.699499
PC24  13363.022798  18659.680372  15849.154583    -77.262926
PC25  25984.171194  10059.878269  -1348.368835    122.605927
PC26  -4785.702451  15619.989401  22608.746459   -117.549683
PC27  13252.916171 -20580.428032  13388.783236    137.317935
PC28  23750.852822 -14440.865171  -2479.917475    101.489000
PC29 -20697.409050   -714.820711  18691.854751    117.765057
PC30  -4927.004554 -15887.918806  22397.072370     -0.120583
PC32   3946.485866 -25864.352051   9699.776997   -565.435098
PC33  15414.388440  10282.303037  20883.489383   -879.640974
PC34   6297.132872  15110.607283 -22613.987317    166.407356
PC35 -23407.311028  14809.443488   3203.942171    631.250375
PC36 -25589.036962 -11121.999786    659.512192   -453.275124
PC37   6387.520823 -14974.549413 -22652.790476   -784.835480
PC38 -10017.726639  20736.973286 -35284.798283     77.050267
PC39 -24376.401863  28151.203096  19621.311202     -2.869392
PC40 -13114.122766  37955.062853  13242.637443    -22.640912
PC41  13938.951643 -10530.996868  21815.683795   -953.125132
PC42   7846.712895  25699.129036   7639.151068   -700.662301
PC43  20309.111330   1573.442189 -19098.655278     20.473732
PC44 -12531.712802  21123.893143 -13233.586178    100.577416
PC45 -22093.300585   3028.022171  16789.781709    -95.130362
PC46 -14871.195215 -18429.327519 -14792.714292    -52.646813
PE02 -16507.413849   4919.624150  24068.764911     36.996958
PE03 -19638.164035  16598.292977 -14670.736415   -677.035834
PE04  11149.318761 -27267.947590  -2856.438492   -118.019774
PE05 -16779.167184  -4146.690988 -24020.021596    -69.287809
PE07   3956.275336  22327.808972  19044.177534    -43.603920
PE08 -11287.960546  27246.190051   2621.240454    -79.986082
PE09  -3754.371213 -22367.517866 -19002.273225     -7.977547
PE10   -184.696835 -16020.612767  24877.015261   -532.296394
PE11 -12365.704878 -14030.143272  22922.626575   1863.727612
PE12  10985.281717 -15475.736171  22714.020619   -530.560144
PE13  11556.449880  14187.969698 -23271.424232    -19.106130
PE14   4185.332329  25061.095366 -20073.801294    219.632785
PE15 -11305.208935  15367.803424 -22628.386987    -20.336320
PE18  -8126.893605 -14194.144811  17333.442128     41.427779
PE19  19948.512333 -14111.886564  16719.848668  -2579.401211
PE21  21498.836002  13825.659258 -14929.447323   -527.979398
PE24 -13753.325226 -25908.013973  -4072.950217    -88.062317
PE25 -21484.561840 -14130.724294  14665.521435   -604.731822
PE26  27687.372369   4350.463367  -9531.575177     98.511365
PE27  14337.950456  25673.729294   3348.002361    -44.663510
PE30  -1780.133678  21966.942598  19743.173968   -157.189164
PE31   1181.502856 -22278.833772 -19450.387271   -523.320984
PE33  27323.009085  -7460.665493   8625.076191   -444.732457
PE34 -27227.822886   7607.993164  -8785.373363    -44.390223
PE36 -27343.992616  -4720.114908  10282.424430    -53.208455
PG01  10772.426205  13477.630245 -20629.104468    186.820673
PG02 -24347.202065   7335.266772  -6919.603537   -598.166185
PG03  12771.577447  23305.871963  -1777.473539   -308.799686
PG04   4689.265588  17983.764719  18944.247954     36.508762
PG05  -1154.614190 -21184.771866  15731.021147   -126.448919
PG06  24837.461457  -5515.611409   7861.375553    588.123538
PG07  23346.244269   7540.845336  11226.865046    182.940645
PG08  -4310.152527  23994.518697 -10119.568938   -121.481505
PG09  12900.429280   8300.047483  21609.580905   -163.117484
PG10 -17059.813822  -1876.039645 -20179.846374    -36.116976
PG11  14018.124885 -12573.603809  18724.537771   -189.877010
PG12  -9315.390199 -24584.897261  -4363.777911   -373.638583
PG13  12592.581369 -22752.002875  -5012.717279    517.171797
PG14  18209.199697   4892.099956 -18753.088719     50.360506
PG15    664.302000 -24351.029271 -10717.890284     37.770130
PG16  -4020.869372  19128.987642  17460.416493   -502.667147
PG17  18423.077001  -7067.447474 -17403.807811    714.037343
PG18 -24963.184286  -5150.935207   7740.896154   -258.138538
PG19  19318.827210 -13968.736100 -11614.159512    314.278213
PG20   5917.472819 -15756.834289  20625.070338    434.644761
PG21   1963.404209  14805.621338 -21408.459713    153.922044
PG22 -18126.053736  17353.835436  -7994.962347    478.005699
PG23 -19109.456085 -13292.229964 -12924.458559     22.653708
PG24  -6678.509173 -15063.050954 -21241.307244   -181.569071
PG25 -17042.700809 -19671.735142   5649.601439    441.422483
PG26 -12759.883522   9193.906274  21284.224829    241.023781
PG27 -12586.942543  23126.380464     67.858916     41.645395
PG28 -25347.313207   5468.699209   5713.416924     75.618501
PG29  -9555.661129 -12063.297448  21581.908472   -598.713617
PG30  26704.968132   -209.791480    229.977129   -518.271355
PG31 -20218.996291  10047.698943  14168.031392   -215.709580
PG32 -18248.210147  10087.441285 -16157.463633   -471.722385
PJ02 -24999.774527  24051.349187  29112.993601      0.091386
PJ03 -35339.516808  19974.053693  -6684.357294      3.742603
PJ04 -20456.098328  29039.935124 -17613.697726     94.435376
PR01   2884.023200  23700.811764   9011.063987     57.131170
PR02   9372.453993   9431.951646  21805.244041    -22.860251
PR03  10801.258636  -9803.601134  20992.018819     77.480277
PR04   6255.038565 -23155.976122   8728.203258    186.423526
PR05  -1566.054093 -24068.691853  -8315.985351    112.238595
PR07 -10671.366215  10574.750484 -20555.299540     55.512885
PR08  -6016.539445  23293.794938  -8373.910419    -70.710192
PR09 -21970.637566 -12390.124830   3525.533228    119.097381
PR11  -4416.481138  10162.414066  22986.309402    -51.795129
PR12  13087.155793  17025.836860  13780.034514     27.100308
PR13  21548.193573  13555.575159  -1624.705297    -34.815531
PR14  17676.701979   1273.478062 -18343.567601     24.651820
PR15   3432.319057 -10923.056474 -22774.787610     89.412216
PR16 -13017.725365 -16812.457443 -14055.839114     14.358913
PR17  23493.599266  -9584.867857  -2434.918914    628.233234
PR18  16307.698849 -14070.963809  13717.874309     80.544988
PR19   2372.955716 -11800.676574  22482.942099   -231.902117
PR20 -17405.489054  -1733.318034  18547.423309    -92.517837
PR21 -23396.675737  10155.106263    835.377229     -5.987543
PR22 -15938.269355  13791.148258 -14333.796411     81.826461
PR24  18070.074747   1068.686621 -17956.826712    168.671199
PR25 -23959.849190   8386.841097   2591.722902     60.632568
EOF
